CCSDS_OMM_VERS = 2.0
CREATION_DATE  = 
ORIGINATOR     = 

OBJECT_NAME    = ARIANE 40 R/B
OBJECT_ID      = 1990-005H
CENTER_NAME    = EARTH
REF_FRAME      = TEME
TIME_SYSTEM    = UTC
MEAN_ELEMENT_THEORY = SGP/SGP4

EPOCH          = 2025-11-26T18:07:44.604768
MEAN_MOTION    = 14.39780424
ECCENTRICITY   = .001078
INCLINATION    = 98.3265
RA_OF_ASC_NODE = 29.3835
ARG_OF_PERICENTER = 149.5945
MEAN_ANOMALY   = 210.5871

EPHEMERIS_TYPE = 0
CLASSIFICATION_TYPE = U
NORAD_CAT_ID   = 20443
ELEMENT_SET_NO = 999
REV_AT_EPOCH   = 87799
BSTAR          = .14139E-3
MEAN_MOTION_DOT = .401E-5
MEAN_MOTION_DDOT = 0

CCSDS_OMM_VERS = 2.0
CREATION_DATE  = 
ORIGINATOR     = 

OBJECT_NAME    = DELTA 2 R/B(1)
OBJECT_ID      = 1990-008B
CENTER_NAME    = EARTH
REF_FRAME      = TEME
TIME_SYSTEM    = UTC
MEAN_ELEMENT_THEORY = SGP/SGP4

EPOCH          = 2025-11-26T12:35:49.111008
MEAN_MOTION    = 15.43609985
ECCENTRICITY   = .0114071
INCLINATION    = 35.6053
RA_OF_ASC_NODE = 125.1080
ARG_OF_PERICENTER = 30.0740
MEAN_ANOMALY   = 330.6482

EPHEMERIS_TYPE = 0
CLASSIFICATION_TYPE = U
NORAD_CAT_ID   = 20453
ELEMENT_SET_NO = 999
REV_AT_EPOCH   = 91012
BSTAR          = .58153E-3
MEAN_MOTION_DOT = .34536E-3
MEAN_MOTION_DDOT = 0

CCSDS_OMM_VERS = 2.0
CREATION_DATE  = 
ORIGINATOR     = 

OBJECT_NAME    = COSMOS 2058
OBJECT_ID      = 1990-010A
CENTER_NAME    = EARTH
REF_FRAME      = TEME
TIME_SYSTEM    = UTC
MEAN_ELEMENT_THEORY = SGP/SGP4

EPOCH          = 2025-11-26T14:13:21.020160
MEAN_MOTION    = 15.10260380
ECCENTRICITY   = .0009252
INCLINATION    = 82.4632
RA_OF_ASC_NODE = 148.9162
ARG_OF_PERICENTER = 338.9973
MEAN_ANOMALY   = 21.0875

EPHEMERIS_TYPE = 0
CLASSIFICATION_TYPE = U
NORAD_CAT_ID   = 20465
ELEMENT_SET_NO = 999
REV_AT_EPOCH   = 92667
BSTAR          = .29547E-3
MEAN_MOTION_DOT = .4865E-4
MEAN_MOTION_DDOT = 0

CCSDS_OMM_VERS = 2.0
CREATION_DATE  = 
ORIGINATOR     = 

OBJECT_NAME    = SL-14 R/B
OBJECT_ID      = 1990-010B
CENTER_NAME    = EARTH
REF_FRAME      = TEME
TIME_SYSTEM    = UTC
MEAN_ELEMENT_THEORY = SGP/SGP4

EPOCH          = 2025-11-26T14:59:16.751616
MEAN_MOTION    = 14.83449227
ECCENTRICITY   = .0018295
INCLINATION    = 82.5031
RA_OF_ASC_NODE = 4.1828
ARG_OF_PERICENTER = 280.3235
MEAN_ANOMALY   = 79.5917

EPHEMERIS_TYPE = 0
CLASSIFICATION_TYPE = U
NORAD_CAT_ID   = 20466
ELEMENT_SET_NO = 999
REV_AT_EPOCH   = 91320
BSTAR          = .62068E-4
MEAN_MOTION_DOT = .534E-5
MEAN_MOTION_DDOT = 0

CCSDS_OMM_VERS = 2.0
CREATION_DATE  = 
ORIGINATOR     = 

OBJECT_NAME    = SL-14 R/B
OBJECT_ID      = 1990-018B
CENTER_NAME    = EARTH
REF_FRAME      = TEME
TIME_SYSTEM    = UTC
MEAN_ELEMENT_THEORY = SGP/SGP4

EPOCH          = 2025-11-26T11:25:04.162368
MEAN_MOTION    = 14.82021585
ECCENTRICITY   = .0017915
INCLINATION    = 82.5199
RA_OF_ASC_NODE = 319.5679
ARG_OF_PERICENTER = 73.3356
MEAN_ANOMALY   = 286.9823

EPHEMERIS_TYPE = 0
CLASSIFICATION_TYPE = U
NORAD_CAT_ID   = 20511
ELEMENT_SET_NO = 999
REV_AT_EPOCH   = 90729
BSTAR          = .6924E-4
MEAN_MOTION_DOT = .574E-5
MEAN_MOTION_DDOT = 0

CCSDS_OMM_VERS = 2.0
CREATION_DATE  = 
ORIGINATOR     = 

OBJECT_NAME    = HST
OBJECT_ID      = 1990-037B
CENTER_NAME    = EARTH
REF_FRAME      = TEME
TIME_SYSTEM    = UTC
MEAN_ELEMENT_THEORY = SGP/SGP4

EPOCH          = 2025-11-26T12:39:57.618144
MEAN_MOTION    = 15.27720428
ECCENTRICITY   = .0002051
INCLINATION    = 28.4702
RA_OF_ASC_NODE = 22.8054
ARG_OF_PERICENTER = 68.4197
MEAN_ANOMALY   = 291.6616

EPHEMERIS_TYPE = 0
CLASSIFICATION_TYPE = U
NORAD_CAT_ID   = 20580
ELEMENT_SET_NO = 999
REV_AT_EPOCH   = 75751
BSTAR          = .30392E-3
MEAN_MOTION_DOT = .8698E-4
MEAN_MOTION_DDOT = 0

CCSDS_OMM_VERS = 2.0
CREATION_DATE  = 
ORIGINATOR     = 

OBJECT_NAME    = SL-16 R/B
OBJECT_ID      = 1990-046B
CENTER_NAME    = EARTH
REF_FRAME      = TEME
TIME_SYSTEM    = UTC
MEAN_ELEMENT_THEORY = SGP/SGP4

EPOCH          = 2025-11-26T18:27:55.950048
MEAN_MOTION    = 14.14992664
ECCENTRICITY   = .0012174
INCLINATION    = 70.9965
RA_OF_ASC_NODE = 154.0606
ARG_OF_PERICENTER = 103.1744
MEAN_ANOMALY   = 257.0737

EPHEMERIS_TYPE = 0
CLASSIFICATION_TYPE = U
NORAD_CAT_ID   = 20625
ELEMENT_SET_NO = 999
REV_AT_EPOCH   = 83383
BSTAR          = .17322E-3
MEAN_MOTION_DOT = .288E-5
MEAN_MOTION_DDOT = 0

CCSDS_OMM_VERS = 2.0
CREATION_DATE  = 
ORIGINATOR     = 

OBJECT_NAME    = COSMOS 2084
OBJECT_ID      = 1990-055A
CENTER_NAME    = EARTH
REF_FRAME      = TEME
TIME_SYSTEM    = UTC
MEAN_ELEMENT_THEORY = SGP/SGP4

EPOCH          = 2025-11-26T10:07:12.713088
MEAN_MOTION    = 15.04867995
ECCENTRICITY   = .0034314
INCLINATION    = 62.7914
RA_OF_ASC_NODE = 327.5884
ARG_OF_PERICENTER = 172.7049
MEAN_ANOMALY   = 187.4557

EPHEMERIS_TYPE = 0
CLASSIFICATION_TYPE = U
NORAD_CAT_ID   = 20663
ELEMENT_SET_NO = 999
REV_AT_EPOCH   = 92077
BSTAR          = .24628E-3
MEAN_MOTION_DOT = .3339E-4
MEAN_MOTION_DDOT = 0

CCSDS_OMM_VERS = 2.0
CREATION_DATE  = 
ORIGINATOR     = 

OBJECT_NAME    = SL-6 R/B(2)
OBJECT_ID      = 1990-055D
CENTER_NAME    = EARTH
REF_FRAME      = TEME
TIME_SYSTEM    = UTC
MEAN_ELEMENT_THEORY = SGP/SGP4

EPOCH          = 2025-11-26T11:12:54.714816
MEAN_MOTION    = 15.02965611
ECCENTRICITY   = .0011406
INCLINATION    = 62.7831
RA_OF_ASC_NODE = 244.7010
ARG_OF_PERICENTER = 295.7416
MEAN_ANOMALY   = 64.2506

EPHEMERIS_TYPE = 0
CLASSIFICATION_TYPE = U
NORAD_CAT_ID   = 20666
ELEMENT_SET_NO = 999
REV_AT_EPOCH   = 92267
BSTAR          = .2297E-3
MEAN_MOTION_DOT = .2911E-4
MEAN_MOTION_DDOT = 0

CCSDS_OMM_VERS = 2.0
CREATION_DATE  = 
ORIGINATOR     = 

OBJECT_NAME    = SL-8 R/B
OBJECT_ID      = 1990-078B
CENTER_NAME    = EARTH
REF_FRAME      = TEME
TIME_SYSTEM    = UTC
MEAN_ELEMENT_THEORY = SGP/SGP4

EPOCH          = 2025-11-26T13:33:09.088992
MEAN_MOTION    = 14.84943839
ECCENTRICITY   = .0377238
INCLINATION    = 82.9053
RA_OF_ASC_NODE = 343.7774
ARG_OF_PERICENTER = 0.2000
MEAN_ANOMALY   = 359.9295

EPHEMERIS_TYPE = 0
CLASSIFICATION_TYPE = U
NORAD_CAT_ID   = 20775
ELEMENT_SET_NO = 999
REV_AT_EPOCH   = 79397
BSTAR          = .83485E-3
MEAN_MOTION_DOT = .26974E-3
MEAN_MOTION_DDOT = 0

CCSDS_OMM_VERS = 2.0
CREATION_DATE  = 
ORIGINATOR     = 

OBJECT_NAME    = SL-8 R/B
OBJECT_ID      = 1991-006B
CENTER_NAME    = EARTH
REF_FRAME      = TEME
TIME_SYSTEM    = UTC
MEAN_ELEMENT_THEORY = SGP/SGP4

EPOCH          = 2025-11-26T18:28:47.377056
MEAN_MOTION    = 13.77487376
ECCENTRICITY   = .0021846
INCLINATION    = 82.9430
RA_OF_ASC_NODE = 246.5906
ARG_OF_PERICENTER = 326.8176
MEAN_ANOMALY   = 90.8508

EPHEMERIS_TYPE = 0
CLASSIFICATION_TYPE = U
NORAD_CAT_ID   = 21088
ELEMENT_SET_NO = 999
REV_AT_EPOCH   = 74990
BSTAR          = .10227E-3
MEAN_MOTION_DOT = .117E-5
MEAN_MOTION_DDOT = 0

CCSDS_OMM_VERS = 2.0
CREATION_DATE  = 
ORIGINATOR     = 

OBJECT_NAME    = OKEAN-3
OBJECT_ID      = 1991-039A
CENTER_NAME    = EARTH
REF_FRAME      = TEME
TIME_SYSTEM    = UTC
MEAN_ELEMENT_THEORY = SGP/SGP4

EPOCH          = 2025-11-26T18:45:31.719168
MEAN_MOTION    = 15.03961519
ECCENTRICITY   = .001384
INCLINATION    = 82.5175
RA_OF_ASC_NODE = 76.4901
ARG_OF_PERICENTER = 324.6664
MEAN_ANOMALY   = 35.3643

EPHEMERIS_TYPE = 0
CLASSIFICATION_TYPE = U
NORAD_CAT_ID   = 21397
ELEMENT_SET_NO = 999
REV_AT_EPOCH   = 84956
BSTAR          = .36896E-3
MEAN_MOTION_DOT = .5128E-4
MEAN_MOTION_DDOT = 0

