ARIANE 40 R/B           
1 20443U 90005H   25330.75537737  .00000401  00000+0  14139-3 0  9999
2 20443  98.3265  29.3835 0010780 149.5945 210.5871 14.39780424877997
DELTA 2 R/B(1)          
1 20453U 90008B   25330.52487397  .00034536  00000+0  58153-3 0  9994
2 20453  35.6053 125.1080 0114071  30.0740 330.6482 15.43609985910122
COSMOS 2058             
1 20465U 90010A   25330.59260440  .00004865  00000+0  29547-3 0  9992
2 20465  82.4632 148.9162 0009252 338.9973  21.0875 15.10260380926674
SL-14 R/B               
1 20466U 90010B   25330.62449944  .00000534  00000+0  62068-4 0  9990
2 20466  82.5031   4.1828 0018295 280.3235  79.5917 14.83449227913207
SL-14 R/B               
1 20511U 90018B   25330.47574262  .00000574  00000+0  69240-4 0  9997
2 20511  82.5199 319.5679 0017915  73.3356 286.9823 14.82021585907296
HST                     
1 20580U 90037B   25330.52775021  .00008698  00000+0  30392-3 0  9996
2 20580  28.4702  22.8054 0002051  68.4197 291.6616 15.27720428757518
SL-16 R/B               
1 20625U 90046B   25330.76939757  .00000288  00000+0  17322-3 0  9995
2 20625  70.9965 154.0606 0012174 103.1744 257.0737 14.14992664833832
COSMOS 2084             
1 20663U 90055A   25330.42167492  .00003339  00000+0  24628-3 0  9996
2 20663  62.7914 327.5884 0034314 172.7049 187.4557 15.04867995920776
SL-6 R/B(2)             
1 20666U 90055D   25330.46729994  .00002911  00000+0  22970-3 0  9997
2 20666  62.7831 244.7010 0011406 295.7416  64.2506 15.02965611922678
SL-8 R/B                
1 20775U 90078B   25330.56468853  .00026974  00000+0  83485-3 0  9991
2 20775  82.9053 343.7774 0377238   0.2000 359.9295 14.84943839793977
SL-8 R/B                
1 21088U 91006B   25330.76999279  .00000117  00000+0  10227-3 0  9999
2 21088  82.9430 246.5906 0021846 326.8176  90.8508 13.77487376749905
OKEAN-3                 
1 21397U 91039A   25330.78161712  .00005128  00000+0  36896-3 0  9990
2 21397  82.5175  76.4901 0013840 324.6664  35.3643 15.03961519849562
